{
  "type": "FeatureCollection",
  "features": [
    {
      "type": "Feature",
      "properties": {
        "norad_id": 66580,
        "name": "STARLINK-35872",
        "group": "last-30-days",
        "lat": 28.088863056292798,
        "lon": 167.43422869555255,
        "alt_km": 411.45328069255356,
        "timestamp": "2025-12-10T18:56:58.833375+00:00",
        "meta_object_name": "STARLINK-35872",
        "meta_object_id": "2025-268Z",
        "meta_epoch": "2025-12-10T12:00:02.998944",
        "meta_mean_motion": 15.50590119,
        "meta_eccentricity": 0.0001582,
        "meta_inclination": 43.0002,
        "meta_ra_of_asc_node": 134.1874,
        "meta_arg_of_pericenter": 262.7067,
        "meta_mean_anomaly": 322.8813,
        "meta_ephemeris_type": 0,
        "meta_classification_type": "U",
        "meta_norad_cat_id": 66580,
        "meta_element_set_no": 999,
        "meta_rev_at_epoch": 430,
        "meta_bstar": -0.0010121,
        "meta_mean_motion_dot": -0.00059291,
        "meta_mean_motion_ddot": 0,
        "tle_line1": "1 66580U 25268Z   25344.50003471 -.00059291  00000+0 -10121-2 0  9990",
        "tle_line2": "2 66580  43.0002 134.1874 0001582 262.7067 322.8813 15.50590119  4300"
      },
      "geometry": {
        "type": "Point",
        "coordinates": [
          167.43422869555255,
          28.088863056292798
        ]
      }
    },
    {
      "type": "Feature",
      "properties": {
        "norad_id": 66581,
        "name": "STARLINK-35744",
        "group": "last-30-days",
        "lat": 29.17288618514268,
        "lon": 169.29208550456912,
        "alt_km": 411.32571060466125,
        "timestamp": "2025-12-10T18:56:58.833385+00:00",
        "meta_object_name": "STARLINK-35744",
        "meta_object_id": "2025-268AA",
        "meta_epoch": "2025-12-10T12:00:02.998944",
        "meta_mean_motion": 15.50589412,
        "meta_eccentricity": 0.0001468,
        "meta_inclination": 43.0002,
        "meta_ra_of_asc_node": 134.1816,
        "meta_arg_of_pericenter": 260.9762,
        "meta_mean_anomaly": 326.5854,
        "meta_ephemeris_type": 0,
        "meta_classification_type": "U",
        "meta_norad_cat_id": 66581,
        "meta_element_set_no": 999,
        "meta_rev_at_epoch": 426,
        "meta_bstar": -0.0016342,
        "meta_mean_motion_dot": -0.00095092,
        "meta_mean_motion_ddot": 0,
        "tle_line1": "1 66581U 25268AA  25344.50003471 -.00095092  00000+0 -16342-2 0  9991",
        "tle_line2": "2 66581  43.0002 134.1816 0001468 260.9762 326.5854 15.50589412  4267"
      },
      "geometry": {
        "type": "Point",
        "coordinates": [
          169.29208550456912,
          29.17288618514268
        ]
      }
    },
    {
      "type": "Feature",
      "properties": {
        "norad_id": 66582,
        "name": "STARLINK-35746",
        "group": "last-30-days",
        "lat": 30.185913550951696,
        "lon": 171.10795982317867,
        "alt_km": 411.1970468478921,
        "timestamp": "2025-12-10T18:56:58.833395+00:00",
        "meta_object_name": "STARLINK-35746",
        "meta_object_id": "2025-268AB",
        "meta_epoch": "2025-12-10T12:00:02.998944",
        "meta_mean_motion": 15.50597448,
        "meta_eccentricity": 0.0001728,
        "meta_inclination": 43.0001,
        "meta_ra_of_asc_node": 134.1766,
        "meta_arg_of_pericenter": 265.759,
        "meta_mean_anomaly": 323.6605,
        "meta_ephemeris_type": 0,
        "meta_classification_type": "U",
        "meta_norad_cat_id": 66582,
        "meta_element_set_no": 999,
        "meta_rev_at_epoch": 430,
        "meta_bstar": -0.0012026,
        "meta_mean_motion_dot": -0.00070309,
        "meta_mean_motion_ddot": 0,
        "tle_line1": "1 66582U 25268AB  25344.50003471 -.00070309  00000+0 -12026-2 0  9991",
        "tle_line2": "2 66582  43.0001 134.1766 0001728 265.7590 323.6605 15.50597448  4307"
      },
      "geometry": {
        "type": "Point",
        "coordinates": [
          171.10795982317867,
          30.185913550951696
        ]
      }
    },
    {
      "type": "Feature",
      "properties": {
        "norad_id": 66583,
        "name": "STARLINK-35941",
        "group": "last-30-days",
        "lat": 31.195468225018825,
        "lon": 173.00404321838948,
        "alt_km": 411.0973433678473,
        "timestamp": "2025-12-10T18:56:58.833407+00:00",
        "meta_object_name": "STARLINK-35941",
        "meta_object_id": "2025-268AC",
        "meta_epoch": "2025-12-10T12:00:02.998944",
        "meta_mean_motion": 15.50595039,
        "meta_eccentricity": 0.0001746,
        "meta_inclination": 43.0003,
        "meta_ra_of_asc_node": 134.1721,
        "meta_arg_of_pericenter": 263.981,
        "meta_mean_anomaly": 327.3607,
        "meta_ephemeris_type": 0,
        "meta_classification_type": "U",
        "meta_norad_cat_id": 66583,
        "meta_element_set_no": 999,
        "meta_rev_at_epoch": 430,
        "meta_bstar": -0.0011988,
        "meta_mean_motion_dot": -0.00070083,
        "meta_mean_motion_ddot": 0,
        "tle_line1": "1 66583U 25268AC  25344.50003471 -.00070083  00000+0 -11988-2 0  9997",
        "tle_line2": "2 66583  43.0003 134.1721 0001746 263.9810 327.3607 15.50595039  4303"
      },
      "geometry": {
        "type": "Point",
        "coordinates": [
          173.00404321838948,
          31.195468225018825
        ]
      }
    },
    {
      "type": "Feature",
      "properties": {
        "norad_id": 66584,
        "name": "STARLINK-35939",
        "group": "last-30-days",
        "lat": 32.17555666852899,
        "lon": 174.93990394252756,
        "alt_km": 410.8926231801679,
        "timestamp": "2025-12-10T18:56:58.833417+00:00",
        "meta_object_name": "STARLINK-35939",
        "meta_object_id": "2025-268AD",
        "meta_epoch": "2025-12-10T12:00:02.998944",
        "meta_mean_motion": 15.50607251,
        "meta_eccentricity": 0.0001654,
        "meta_inclination": 43.0001,
        "meta_ra_of_asc_node": 134.1682,
        "meta_arg_of_pericenter": 265.1503,
        "meta_mean_anomaly": 328.1022,
        "meta_ephemeris_type": 0,
        "meta_classification_type": "U",
        "meta_norad_cat_id": 66584,
        "meta_element_set_no": 999,
        "meta_rev_at_epoch": 430,
        "meta_bstar": -0.0014997,
        "meta_mean_motion_dot": -0.00087434,
        "meta_mean_motion_ddot": 0,
        "tle_line1": "1 66584U 25268AD  25344.50003471 -.00087434  00000+0 -14997-2 0  9999",
        "tle_line2": "2 66584  43.0001 134.1682 0001654 265.1503 328.1022 15.50607251  4309"
      },
      "geometry": {
        "type": "Point",
        "coordinates": [
          174.93990394252756,
          32.17555666852899
        ]
      }
    },
    {
      "type": "Feature",
      "properties": {
        "norad_id": 66585,
        "name": "STARLINK-35963",
        "group": "last-30-days",
        "lat": 33.12400393617967,
        "lon": 176.912547292002,
        "alt_km": 410.6935720886786,
        "timestamp": "2025-12-10T18:56:58.833427+00:00",
        "meta_object_name": "STARLINK-35963",
        "meta_object_id": "2025-268AE",
        "meta_epoch": "2025-12-10T12:00:02.998944",
        "meta_mean_motion": 15.50613431,
        "meta_eccentricity": 0.0001462,
        "meta_inclination": 43.0002,
        "meta_ra_of_asc_node": 134.1631,
        "meta_arg_of_pericenter": 260.7488,
        "meta_mean_anomaly": 334.4174,
        "meta_ephemeris_type": 0,
        "meta_classification_type": "U",
        "meta_norad_cat_id": 66585,
        "meta_element_set_no": 999,
        "meta_rev_at_epoch": 430,
        "meta_bstar": -0.0016802,
        "meta_mean_motion_dot": -0.00097811,
        "meta_mean_motion_ddot": 0,
        "tle_line1": "1 66585U 25268AE  25344.50003471 -.00097811  00000+0 -16802-2 0  9997",
        "tle_line2": "2 66585  43.0002 134.1631 0001462 260.7488 334.4174 15.50613431  4300"
      },
      "geometry": {
        "type": "Point",
        "coordinates": [
          176.912547292002,
          33.12400393617967
        ]
      }
    },
    {
      "type": "Feature",
      "properties": {
        "norad_id": 66586,
        "name": "TJS-21",
        "group": "last-30-days",
        "lat": 42.80994525895342,
        "lon": -169.6195604815257,
        "alt_km": 23309.62390360922,
        "timestamp": "2025-12-10T18:56:58.833439+00:00",
        "meta_object_name": "TJS-21",
        "meta_object_id": "2025-269A",
        "meta_epoch": "2025-12-09T17:35:27.978144",
        "meta_mean_motion": 2.00565752,
        "meta_eccentricity": 0.68056573,
        "meta_inclination": 63.268,
        "meta_ra_of_asc_node": 162.6671,
        "meta_arg_of_pericenter": 269.7843,
        "meta_mean_anomaly": 18.6559,
        "meta_ephemeris_type": 0,
        "meta_classification_type": "U",
        "meta_norad_cat_id": 66586,
        "meta_element_set_no": 999,
        "meta_rev_at_epoch": 37,
        "meta_bstar": -0.041606579,
        "meta_mean_motion_dot": 1.08e-05,
        "meta_mean_motion_ddot": 0,
        "tle_line1": "1 66586U 25269A   25343.73296271  .00001080  00000+0 -41607-1 0  9997",
        "tle_line2": "2 66586  63.2680 162.6671 6805657 269.7843  18.6559  2.00565752   379"
      },
      "geometry": {
        "type": "Point",
        "coordinates": [
          -169.6195604815257,
          42.80994525895342
        ]
      }
    }
  ]
}